ONEWEB-0665             
1 55825U 23029AF  24119.94061896 -.00000087  00000+0 -27041-3 0  9994
2 55825  87.8931  84.7709 0001647  89.9835 270.1484 13.14503564 57031
ONEWEB-0666             
1 55826U 23029AG  24119.87506162  .00000104  00000+0  22490-3 0  9998
2 55826  87.9199  69.5337 0002340  74.5602 285.5789 13.20773326 58288
ONEWEB-0667             
1 55827U 23029AH  24120.09601047  .00000056  00000+0  10537-3 0  9998
2 55827  87.9198  69.4234 0001607  82.8117 277.3199 13.20773959 58984
ONEWEB-0669             
1 55828U 23029AJ  24119.93975409  .00000059  00000+0  11230-3 0  9990
2 55828  87.9197  69.4924 0002128  59.9259 300.2085 13.20770475 58284
ONEWEB-0670             
1 55829U 23029AK  24119.91842936 -.00000118  00000+0 -35232-3 0  9993
2 55829  87.8937  84.7794 0001384  81.9819 278.1467 13.14502150 57058
ONEWEB-0671             
1 55830U 23029AL  24119.89432854  .00000103  00000+0  22453-3 0  9999
2 55830  87.9111 100.0744 0001665  88.5668 271.5656 13.19727082 56110
ONEWEB-0672             
1 55831U 23029AM  24120.08654591  .00000049  00000+0  89531-4 0  9997
2 55831  87.9198  69.4467 0002298  77.7786 282.3605 13.20773478 58983
ONEWEB-0673             
1 55832U 23029AN  24119.94646077  .00000059  00000+0  11554-3 0  9991
2 55832  87.9111 100.0317 0001726  91.2035 268.9295 13.19728096 56121
